{
  "type": "FeatureCollection",
  "features": [
    {
      "type": "Feature",
      "properties": {
        "norad_id": 66633,
        "name": "STARLINK-35948",
        "group": "last-30-days",
        "lat": 17.81442692941718,
        "lon": -161.89390768318262,
        "alt_km": 416.9597354215048,
        "timestamp": "2025-12-13T08:49:14.457147+00:00",
        "meta_object_name": "STARLINK-35948",
        "meta_object_id": "2025-271S",
        "meta_epoch": "2025-12-12T20:00:01.999872",
        "meta_mean_motion": 15.49302804,
        "meta_eccentricity": 0.00012735,
        "meta_inclination": 53.1595,
        "meta_ra_of_asc_node": 186.7199,
        "meta_arg_of_pericenter": 93.5768,
        "meta_mean_anomaly": 188.0201,
        "meta_ephemeris_type": 0,
        "meta_classification_type": "U",
        "meta_norad_cat_id": 66633,
        "meta_element_set_no": 999,
        "meta_rev_at_epoch": 425,
        "meta_bstar": -0.00080132585,
        "meta_mean_motion_dot": -0.00044751,
        "meta_mean_motion_ddot": 0,
        "tle_line1": "1 66633U 25271S   25346.83335648 -.00044751  00000+0 -80133-3 0  9991",
        "tle_line2": "2 66633  53.1595 186.7199 0001273  93.5768 188.0201 15.49302804  4253"
      },
      "geometry": {
        "type": "Point",
        "coordinates": [
          -161.89390768318262,
          17.81442692941718
        ]
      }
    },
    {
      "type": "Feature",
      "properties": {
        "norad_id": 66634,
        "name": "STARLINK-35967",
        "group": "last-30-days",
        "lat": 19.298687270675583,
        "lon": -160.61857751799474,
        "alt_km": 416.7395534007828,
        "timestamp": "2025-12-13T08:49:14.457158+00:00",
        "meta_object_name": "STARLINK-35967",
        "meta_object_id": "2025-271T",
        "meta_epoch": "2025-12-12T20:00:01.999872",
        "meta_mean_motion": 15.49306084,
        "meta_eccentricity": 0.00012746,
        "meta_inclination": 53.1597,
        "meta_ra_of_asc_node": 186.7158,
        "meta_arg_of_pericenter": 95.6219,
        "meta_mean_anomaly": 187.8914,
        "meta_ephemeris_type": 0,
        "meta_classification_type": "U",
        "meta_norad_cat_id": 66634,
        "meta_element_set_no": 999,
        "meta_rev_at_epoch": 419,
        "meta_bstar": -0.00093124779,
        "meta_mean_motion_dot": -0.00051893,
        "meta_mean_motion_ddot": 0,
        "tle_line1": "1 66634U 25271T   25346.83335648 -.00051893  00000+0 -93125-3 0  9992",
        "tle_line2": "2 66634  53.1597 186.7158 0001274  95.6219 187.8914 15.49306084  4191"
      },
      "geometry": {
        "type": "Point",
        "coordinates": [
          -160.61857751799474,
          19.298687270675583
        ]
      }
    },
    {
      "type": "Feature",
      "properties": {
        "norad_id": 66635,
        "name": "STARLINK-35955",
        "group": "last-30-days",
        "lat": 20.81127867958806,
        "lon": -159.2856883004965,
        "alt_km": 417.18853703135574,
        "timestamp": "2025-12-13T08:49:14.457169+00:00",
        "meta_object_name": "STARLINK-35955",
        "meta_object_id": "2025-271U",
        "meta_epoch": "2025-12-12T20:00:01.999872",
        "meta_mean_motion": 15.49503802,
        "meta_eccentricity": 3.724e-05,
        "meta_inclination": 53.1598,
        "meta_ra_of_asc_node": 186.7125,
        "meta_arg_of_pericenter": 118.7657,
        "meta_mean_anomaly": 166.6477,
        "meta_ephemeris_type": 0,
        "meta_classification_type": "U",
        "meta_norad_cat_id": 66635,
        "meta_element_set_no": 999,
        "meta_rev_at_epoch": 425,
        "meta_bstar": -0.0066271895,
        "meta_mean_motion_dot": -0.00355173,
        "meta_mean_motion_ddot": 0,
        "tle_line1": "1 66635U 25271U   25346.83335648 -.00355173  00000+0 -66272-2 0  9993",
        "tle_line2": "2 66635  53.1598 186.7125 0000372 118.7657 166.6477 15.49503802  4251"
      },
      "geometry": {
        "type": "Point",
        "coordinates": [
          -159.2856883004965,
          20.81127867958806
        ]
      }
    },
    {
      "type": "Feature",
      "properties": {
        "norad_id": 66636,
        "name": "STARLINK-35968",
        "group": "last-30-days",
        "lat": 22.185427770847593,
        "lon": -158.0442872320022,
        "alt_km": 416.0451032741066,
        "timestamp": "2025-12-13T08:49:14.457179+00:00",
        "meta_object_name": "STARLINK-35968",
        "meta_object_id": "2025-271V",
        "meta_epoch": "2025-12-12T20:00:01.999872",
        "meta_mean_motion": 15.49193993,
        "meta_eccentricity": 8.599e-05,
        "meta_inclination": 53.1597,
        "meta_ra_of_asc_node": 186.7078,
        "meta_arg_of_pericenter": 67.0945,
        "meta_mean_anomaly": 220.2625,
        "meta_ephemeris_type": 0,
        "meta_classification_type": "U",
        "meta_norad_cat_id": 66636,
        "meta_element_set_no": 999,
        "meta_rev_at_epoch": 425,
        "meta_bstar": 0.0012505411,
        "meta_mean_motion_dot": 0.00069439,
        "meta_mean_motion_ddot": 0,
        "tle_line1": "1 66636U 25271V   25346.83335648  .00069439  00000+0  12505-2 0  9999",
        "tle_line2": "2 66636  53.1597 186.7078 0000859  67.0945 220.2625 15.49193993  4252"
      },
      "geometry": {
        "type": "Point",
        "coordinates": [
          -158.0442872320022,
          22.185427770847593
        ]
      }
    },
    {
      "type": "Feature",
      "properties": {
        "norad_id": 66637,
        "name": "STARLINK-35953",
        "group": "last-30-days",
        "lat": 23.641055161566662,
        "lon": -156.69162868945725,
        "alt_km": 415.90536391997375,
        "timestamp": "2025-12-13T08:49:14.457189+00:00",
        "meta_object_name": "STARLINK-35953",
        "meta_object_id": "2025-271W",
        "meta_epoch": "2025-12-12T20:00:01.999872",
        "meta_mean_motion": 15.49194395,
        "meta_eccentricity": 6.832e-05,
        "meta_inclination": 53.1596,
        "meta_ra_of_asc_node": 186.704,
        "meta_arg_of_pericenter": 69.7473,
        "meta_mean_anomaly": 219.5244,
        "meta_ephemeris_type": 0,
        "meta_classification_type": "U",
        "meta_norad_cat_id": 66637,
        "meta_element_set_no": 999,
        "meta_rev_at_epoch": 425,
        "meta_bstar": 0.0012461835,
        "meta_mean_motion_dot": 0.00069195,
        "meta_mean_motion_ddot": 0,
        "tle_line1": "1 66637U 25271W   25346.83335648  .00069195  00000+0  12462-2 0  9991",
        "tle_line2": "2 66637  53.1596 186.7040 0000683  69.7473 219.5244 15.49194395  4256"
      },
      "geometry": {
        "type": "Point",
        "coordinates": [
          -156.69162868945725,
          23.641055161566662
        ]
      }
    },
    {
      "type": "Feature",
      "properties": {
        "norad_id": 66638,
        "name": "STARLINK-35972",
        "group": "last-30-days",
        "lat": 25.09011249199282,
        "lon": -155.30317242257425,
        "alt_km": 415.7016002723194,
        "timestamp": "2025-12-13T08:49:14.457199+00:00",
        "meta_object_name": "STARLINK-35972",
        "meta_object_id": "2025-271X",
        "meta_epoch": "2025-12-12T20:00:01.999872",
        "meta_mean_motion": 15.49197809,
        "meta_eccentricity": 6.251e-05,
        "meta_inclination": 53.1597,
        "meta_ra_of_asc_node": 186.7004,
        "meta_arg_of_pericenter": 74.007,
        "meta_mean_anomaly": 217.1812,
        "meta_ephemeris_type": 0,
        "meta_classification_type": "U",
        "meta_norad_cat_id": 66638,
        "meta_element_set_no": 999,
        "meta_rev_at_epoch": 425,
        "meta_bstar": 0.0012522631,
        "meta_mean_motion_dot": 0.00069546,
        "meta_mean_motion_ddot": 0,
        "tle_line1": "1 66638U 25271X   25346.83335648  .00069546  00000+0  12523-2 0  9990",
        "tle_line2": "2 66638  53.1597 186.7004 0000625  74.0070 217.1812 15.49197809  4254"
      },
      "geometry": {
        "type": "Point",
        "coordinates": [
          -155.30317242257425,
          25.09011249199282
        ]
      }
    },
    {
      "type": "Feature",
      "properties": {
        "norad_id": 66639,
        "name": "STARLINK-35908",
        "group": "last-30-days",
        "lat": 26.523787180394738,
        "lon": -153.8844278951689,
        "alt_km": 415.4086989041998,
        "timestamp": "2025-12-13T08:49:14.457209+00:00",
        "meta_object_name": "STARLINK-35908",
        "meta_object_id": "2025-271Y",
        "meta_epoch": "2025-12-12T20:00:01.999872",
        "meta_mean_motion": 15.49198556,
        "meta_eccentricity": 6.827e-05,
        "meta_inclination": 53.1597,
        "meta_ra_of_asc_node": 186.6959,
        "meta_arg_of_pericenter": 70.0849,
        "meta_mean_anomaly": 223.0223,
        "meta_ephemeris_type": 0,
        "meta_classification_type": "U",
        "meta_norad_cat_id": 66639,
        "meta_element_set_no": 999,
        "meta_rev_at_epoch": 425,
        "meta_bstar": 0.0012556767,
        "meta_mean_motion_dot": 0.0006974,
        "meta_mean_motion_ddot": 0,
        "tle_line1": "1 66639U 25271Y   25346.83335648  .00069740  00000+0  12557-2 0  9994",
        "tle_line2": "2 66639  53.1597 186.6959 0000682  70.0849 223.0223 15.49198556  4258"
      },
      "geometry": {
        "type": "Point",
        "coordinates": [
          -153.8844278951689,
          26.523787180394738
        ]
      }
    }
  ]
}